METHANESAT              
1 59101U 24043D   25171.32816505  .00001603  00000+0  15030-3 0  9996
2 59101  97.8008 297.3801 0011898 134.2173 226.0026 14.95383200 70525
